start=new Date('2023-04-26T00:00:00.000Z').valueOf();
sats=[{"GP_ID":"230739028","MEAN_MOTION_DDOT":"0.0000000000000","INCLINATION":"53.0550","OBJECT_TYPE":"PAYLOAD","RCS_SIZE":"LARGE","OBJECT_ID":"2020-006BM","PERIAPSIS":"523.652","ARG_OF_PERICENTER":"255.5882","LAUNCH_DATE":"2020-01-29","EPHEMERIS_TYPE":"0","MEAN_ELEMENT_THEORY":"SGP4","CLASSIFICATION_TYPE":"U","CENTER_NAME":"EARTH","TLE_LINE2":"2 45103  53.0550 274.1118 0001520 255.5882 104.4941 15.13775254178920","SITE":"AFETR","DECAY_DATE":null,"REF_FRAME":"TEME","COUNTRY_CODE":"US","REV_AT_EPOCH":"17892","NORAD_CAT_ID":"45103","BSTAR":"0.00162740000000","ECCENTRICITY":"0.00015200","PERIOD":"95.126","SEMIMAJOR_AXIS":"6902.836","MEAN_ANOMALY":"104.4941","APOAPSIS":"525.751","RA_OF_ASC_NODE":"274.1118","MEAN_MOTION_DOT":"0.00029523","TIME_SYSTEM":"UTC","EPOCH":"2023-04-25T12:30:18.205920","MEAN_MOTION":"15.13775254","TLE_LINE1":"1 45103U 20006BM  23115.52104405  .00029523  00000-0  16274-2 0  9997","OBJECT_NAME":"STARLINK-1196","ELEMENT_SET_NO":"999","FILE":"3894092"},{"FILE":"3894092","ELEMENT_SET_NO":"999","OBJECT_NAME":"STARLINK-1138","TLE_LINE1":"1 45178U 20012A   23115.27192510  .00015073  00000-0  10265-2 0  9991","MEAN_MOTION":"15.06476363","EPOCH":"2023-04-25T06:31:34.328640","TIME_SYSTEM":"UTC","MEAN_MOTION_DOT":"0.00015073","RA_OF_ASC_NODE":"77.6396","APOAPSIS":"548.084","MEAN_ANOMALY":"304.1303","SEMIMAJOR_AXIS":"6925.115","PERIOD":"95.587","ECCENTRICITY":"0.00015950","BSTAR":"0.00102650000000","NORAD_CAT_ID":"45178","REV_AT_EPOCH":"17660","COUNTRY_CODE":"US","DECAY_DATE":null,"REF_FRAME":"TEME","SITE":"AFETR","CENTER_NAME":"EARTH","TLE_LINE2":"2 45178  53.0553  77.6396 0001595  55.9838 304.1303 15.06476363176609","MEAN_ELEMENT_THEORY":"SGP4","EPHEMERIS_TYPE":"0","CLASSIFICATION_TYPE":"U","LAUNCH_DATE":"2020-02-17","ARG_OF_PERICENTER":"55.9838","PERIAPSIS":"545.875","OBJECT_ID":"2020-012A","RCS_SIZE":"LARGE","OBJECT_TYPE":"PAYLOAD","INCLINATION":"53.0553","MEAN_MOTION_DDOT":"0.0000000000000","GP_ID":"230738283"},{"APOAPSIS":"548.175","PERIOD":"95.588","SEMIMAJOR_AXIS":"6925.127","MEAN_ANOMALY":"298.8516","RA_OF_ASC_NODE":"77.6105","MEAN_MOTION_DOT":"0.00017236","TIME_SYSTEM":"UTC","EPOCH":"2023-04-25T06:35:31.379136","MEAN_MOTION":"15.06472336","TLE_LINE1":"1 45179U 20012B   23115.27466874  .00017236  00000-0  11709-2 0  9996","OBJECT_NAME":"STARLINK-1143","ELEMENT_SET_NO":"999","FILE":"3894092","MEAN_MOTION_DDOT":"0.0000000000000","GP_ID":"230739034","OBJECT_TYPE":"PAYLOAD","RCS_SIZE":"LARGE","OBJECT_ID":"2020-012B","INCLINATION":"53.0536","ARG_OF_PERICENTER":"61.2644","LAUNCH_DATE":"2020-02-17","PERIAPSIS":"545.809","SITE":"AFETR","MEAN_ELEMENT_THEORY":"SGP4","CLASSIFICATION_TYPE":"U","EPHEMERIS_TYPE":"0","TLE_LINE2":"2 45179  53.0536  77.6105 0001708  61.2644 298.8516 15.06472336176667","CENTER_NAME":"EARTH","DECAY_DATE":null,"REF_FRAME":"TEME","COUNTRY_CODE":"US","NORAD_CAT_ID":"45179","REV_AT_EPOCH":"17666","BSTAR":"0.00117090000000","ECCENTRICITY":"0.00017080"},{"PERIAPSIS":"471.302","ARG_OF_PERICENTER":"86.2895","LAUNCH_DATE":"2020-02-17","INCLINATION":"53.0456","OBJECT_TYPE":"PAYLOAD","OBJECT_ID":"2020-012C","RCS_SIZE":"LARGE","GP_ID":"230739283","MEAN_MOTION_DDOT":"0.0000000000000","BSTAR":"0.00230790000000","ECCENTRICITY":"0.00061120","REV_AT_EPOCH":"17697","NORAD_CAT_ID":"45180","DECAY_DATE":null,"REF_FRAME":"TEME","COUNTRY_CODE":"US","MEAN_ELEMENT_THEORY":"SGP4","EPHEMERIS_TYPE":"0","CLASSIFICATION_TYPE":"U","TLE_LINE2":"2 45180  53.0456  54.9522 0006112  86.2895 273.8803 15.30108354176979","CENTER_NAME":"EARTH","SITE":"AFETR","EPOCH":"2023-04-25T02:46:58.880064","MEAN_MOTION_DOT":"0.00068466","TIME_SYSTEM":"UTC","RA_OF_ASC_NODE":"54.9522","PERIOD":"94.111","SEMIMAJOR_AXIS":"6853.626","MEAN_ANOMALY":"273.8803","APOAPSIS":"479.680","FILE":"3894092","TLE_LINE1":"1 45180U 20012C   23115.11595926  .00068466  00000-0  23079-2 0  9996","OBJECT_NAME":"STARLINK-1192","ELEMENT_SET_NO":"999","MEAN_MOTION":"15.30108354"},{"COUNTRY_CODE":"US","REF_FRAME":"TEME","DECAY_DATE":null,"CENTER_NAME":"EARTH","TLE_LINE2":"2 45181  53.0545  77.6840 0001006  76.7866 283.3236 15.06480259176665","EPHEMERIS_TYPE":"0","CLASSIFICATION_TYPE":"U","MEAN_ELEMENT_THEORY":"SGP4","SITE":"AFETR","ECCENTRICITY":"0.00010060","BSTAR":"0.00131630000000","REV_AT_EPOCH":"17666","NORAD_CAT_ID":"45181","INCLINATION":"53.0545","OBJECT_ID":"2020-012D","RCS_SIZE":"LARGE","OBJECT_TYPE":"PAYLOAD","GP_ID":"230740034","MEAN_MOTION_DDOT":"0.0000000000000","PERIAPSIS":"546.271","LAUNCH_DATE":"2020-02-17","ARG_OF_PERICENTER":"76.7866","OBJECT_NAME":"STARLINK-1200","ELEMENT_SET_NO":"999","TLE_LINE1":"1 45181U 20012D   23115.26086626  .00019422  00000-0  13163-2 0  9996","MEAN_MOTION":"15.06480259","FILE":"3894092","RA_OF_ASC_NODE":"77.6840","SEMIMAJOR_AXIS":"6925.103","MEAN_ANOMALY":"283.3236","PERIOD":"95.587","APOAPSIS":"547.664","EPOCH":"2023-04-25T06:15:38.844864","TIME_SYSTEM":"UTC","MEAN_MOTION_DOT":"0.00019422"},{"PERIAPSIS":"546.022","ARG_OF_PERICENTER":"109.0517","LAUNCH_DATE":"2020-02-17","INCLINATION":"53.0545","OBJECT_TYPE":"PAYLOAD","OBJECT_ID":"2020-012E","RCS_SIZE":"LARGE","GP_ID":"230738784","MEAN_MOTION_DDOT":"0.0000000000000","BSTAR":"0.00172700000000","ECCENTRICITY":"0.00012580","REV_AT_EPOCH":"17679","NORAD_CAT_ID":"45182","DECAY_DATE":null,"REF_FRAME":"TEME","COUNTRY_CODE":"US","MEAN_ELEMENT_THEORY":"SGP4","EPHEMERIS_TYPE":"0","CLASSIFICATION_TYPE":"U","CENTER_NAME":"EARTH","TLE_LINE2":"2 45182  53.0545  57.5955 0001258 109.0517 251.0608 15.06504418176795","SITE":"AFETR","EPOCH":"2023-04-25T06:44:49.408224","MEAN_MOTION_DOT":"0.00025609","TIME_SYSTEM":"UTC","RA_OF_ASC_NODE":"57.5955","PERIOD":"95.586","SEMIMAJOR_AXIS":"6925.029","MEAN_ANOMALY":"251.0608","APOAPSIS":"547.765","FILE":"3894092","TLE_LINE1":"1 45182U 20012E   23115.28112741  .00025609  00000-0  17270-2 0  9994","ELEMENT_SET_NO":"999","OBJECT_NAME":"STARLINK-1201","MEAN_MOTION":"15.06504418"},{"APOAPSIS":"548.116","SEMIMAJOR_AXIS":"6925.233","MEAN_ANOMALY":"275.2289","PERIOD":"95.590","RA_OF_ASC_NODE":"77.5206","TIME_SYSTEM":"UTC","MEAN_MOTION_DOT":"-0.00002587","EPOCH":"2023-04-25T07:08:44.326464","MEAN_MOTION":"15.06437832","OBJECT_NAME":"STARLINK-1202","ELEMENT_SET_NO":"999","TLE_LINE1":"1 45183U 20012F   23115.29773526 -.00002587  00000-0 -15465-3 0  9997","FILE":"3894092","MEAN_MOTION_DDOT":"0.0000000000000","GP_ID":"230738534","OBJECT_ID":"2020-012F","RCS_SIZE":"LARGE","OBJECT_TYPE":"PAYLOAD","INCLINATION":"53.0536","LAUNCH_DATE":"2020-02-17","ARG_OF_PERICENTER":"84.8867","PERIAPSIS":"546.080","SITE":"AFETR","TLE_LINE2":"2 45183  53.0536  77.5206 0001470  84.8867 275.2289 15.06437832176676","CENTER_NAME":"EARTH","EPHEMERIS_TYPE":"0","CLASSIFICATION_TYPE":"U","MEAN_ELEMENT_THEORY":"SGP4","COUNTRY_CODE":"US","REF_FRAME":"TEME","DECAY_DATE":null,"NORAD_CAT_ID":"45183","REV_AT_EPOCH":"17667","ECCENTRICITY":"0.00014700","BSTAR":"-0.00015465000000"},{"OBJECT_TYPE":"PAYLOAD","RCS_SIZE":"LARGE","OBJECT_ID":"2020-012G","INCLINATION":"53.0542","MEAN_MOTION_DDOT":"0.0000000000000","GP_ID":"230739784","ARG_OF_PERICENTER":"115.5718","LAUNCH_DATE":"2020-02-17","PERIAPSIS":"546.070","DECAY_DATE":null,"REF_FRAME":"TEME","COUNTRY_CODE":"US","SITE":"AFETR","MEAN_ELEMENT_THEORY":"SGP4","EPHEMERIS_TYPE":"0","CLASSIFICATION_TYPE":"U","CENTER_NAME":"EARTH","TLE_LINE2":"2 45184  53.0542  57.8581 0001278 115.5718 244.5403 15.06484308175973","BSTAR":"0.00104570000000","ECCENTRICITY":"0.00012780","NORAD_CAT_ID":"45184","REV_AT_EPOCH":"17597","RA_OF_ASC_NODE":"57.8581","APOAPSIS":"547.840","PERIOD":"95.587","SEMIMAJOR_AXIS":"6925.090","MEAN_ANOMALY":"244.5403","EPOCH":"2023-04-25T05:19:54.182496","MEAN_MOTION_DOT":"0.00015364","TIME_SYSTEM":"UTC","TLE_LINE1":"1 45184U 20012G   23115.22215489  .00015364  00000-0  10457-2 0  9990","ELEMENT_SET_NO":"999","OBJECT_NAME":"STARLINK-1205","MEAN_MOTION":"15.06484308","FILE":"3894092"},{"PERIAPSIS":"546.183","LAUNCH_DATE":"2020-02-17","ARG_OF_PERICENTER":"102.5801","INCLINATION":"53.0529","RCS_SIZE":"LARGE","OBJECT_ID":"2020-012H","OBJECT_TYPE":"PAYLOAD","GP_ID":"230739534","MEAN_MOTION_DDOT":"0.0000000000000","BSTAR":"0.00139640000000","ECCENTRICITY":"0.00011350","REV_AT_EPOCH":"17661","NORAD_CAT_ID":"45185","COUNTRY_CODE":"US","REF_FRAME":"TEME","DECAY_DATE":null,"TLE_LINE2":"2 45185  53.0529  77.5521 0001135 102.5801 257.5315 15.06479777176615","CENTER_NAME":"EARTH","EPHEMERIS_TYPE":"0","MEAN_ELEMENT_THEORY":"SGP4","CLASSIFICATION_TYPE":"U","SITE":"AFETR","EPOCH":"2023-04-25T06:58:06.631392","TIME_SYSTEM":"UTC","MEAN_MOTION_DOT":"0.00020624","RA_OF_ASC_NODE":"77.5521","SEMIMAJOR_AXIS":"6925.104","MEAN_ANOMALY":"257.5315","PERIOD":"95.587","APOAPSIS":"547.755","FILE":"3894092","ELEMENT_SET_NO":"999","OBJECT_NAME":"STARLINK-1216","TLE_LINE1":"1 45185U 20012H   23115.29035453  .00020624  00000-0  13964-2 0  9990","MEAN_MOTION":"15.06479777"},{"SEMIMAJOR_AXIS":"6925.123","MEAN_ANOMALY":"259.7932","PERIOD":"95.587","APOAPSIS":"547.765","RA_OF_ASC_NODE":"78.0788","TIME_SYSTEM":"UTC","MEAN_MOTION_DOT":"0.00022460","EPOCH":"2023-04-25T04:08:16.399392","MEAN_MOTION":"15.06473661","ELEMENT_SET_NO":"999","OBJECT_NAME":"STARLINK-1224","TLE_LINE1":"1 45186U 20012J   23115.17241203  .00022460  00000-0  15189-2 0  9991","FILE":"3894092","GP_ID":"230738284","MEAN_MOTION_DDOT":"0.0000000000000","INCLINATION":"53.0554","OBJECT_ID":"2020-012J","RCS_SIZE":"LARGE","OBJECT_TYPE":"PAYLOAD","PERIAPSIS":"546.210","LAUNCH_DATE":"2020-02-17","ARG_OF_PERICENTER":"100.3183","CENTER_NAME":"EARTH","TLE_LINE2":"2 45186  53.0554  78.0788 0001123 100.3183 259.7932 15.06473661176593","MEAN_ELEMENT_THEORY":"SGP4","EPHEMERIS_TYPE":"0","CLASSIFICATION_TYPE":"U","SITE":"AFETR","COUNTRY_CODE":"US","REF_FRAME":"TEME","DECAY_DATE":null,"REV_AT_EPOCH":"17659","NORAD_CAT_ID":"45186","ECCENTRICITY":"0.00011230","BSTAR":"0.00151890000000"}];
